{
  "type": "FeatureCollection",
  "features": [
    {
      "type": "Feature",
      "properties": {
        "norad_id": 37781,
        "name": "HAIYANG-2A",
        "group": "resource",
        "lat": 19.360233049674083,
        "lon": 168.69916615440297,
        "alt_km": 967.7356751868001,
        "timestamp": "2025-12-10T09:57:44.361160+00:00",
        "meta_object_name": "HAIYANG-2A",
        "meta_object_id": "2011-043A",
        "meta_epoch": "2025-12-10T03:57:47.504160",
        "meta_mean_motion": 13.78834993,
        "meta_eccentricity": 0.0001658,
        "meta_inclination": 99.3377,
        "meta_ra_of_asc_node": 345.1388,
        "meta_arg_of_pericenter": 85.8708,
        "meta_mean_anomaly": 274.2633,
        "meta_ephemeris_type": 0,
        "meta_classification_type": "U",
        "meta_norad_cat_id": 37781,
        "meta_element_set_no": 999,
        "meta_rev_at_epoch": 72063,
        "meta_bstar": 0.0001693,
        "meta_mean_motion_dot": 1.28e-06,
        "meta_mean_motion_ddot": 0,
        "tle_line1": "1 37781U 11043A   25344.16513315  .00000128  00000+0  16930-3 0  9990",
        "tle_line2": "2 37781  99.3377 345.1388 0001658  85.8708 274.2633 13.78834993720634"
      },
      "geometry": {
        "type": "Point",
        "coordinates": [
          168.69916615440297,
          19.360233049674083
        ]
      }
    },
    {
      "type": "Feature",
      "properties": {
        "norad_id": 37791,
        "name": "RASAT",
        "group": "resource",
        "lat": -71.02054992798043,
        "lon": -130.6413456005604,
        "alt_km": 690.497240786709,
        "timestamp": "2025-12-10T09:57:44.361172+00:00",
        "meta_object_name": "RASAT",
        "meta_object_id": "2011-044D",
        "meta_epoch": "2025-12-10T05:39:49.522176",
        "meta_mean_motion": 14.67904594,
        "meta_eccentricity": 0.0021919,
        "meta_inclination": 98.0652,
        "meta_ra_of_asc_node": 73.5307,
        "meta_arg_of_pericenter": 72.4897,
        "meta_mean_anomaly": 314.3237,
        "meta_ephemeris_type": 0,
        "meta_classification_type": "U",
        "meta_norad_cat_id": 37791,
        "meta_element_set_no": 999,
        "meta_rev_at_epoch": 76546,
        "meta_bstar": 0.00020797,
        "meta_mean_motion_dot": 1.144e-05,
        "meta_mean_motion_ddot": 0,
        "tle_line1": "1 37791U 11044D   25344.23598984  .00001144  00000+0  20797-3 0  9990",
        "tle_line2": "2 37791  98.0652  73.5307 0021919  72.4897 314.3237 14.67904594765463"
      },
      "geometry": {
        "type": "Point",
        "coordinates": [
          -130.6413456005604,
          -71.02054992798043
        ]
      }
    },
    {
      "type": "Feature",
      "properties": {
        "norad_id": 37841,
        "name": "SRMSAT",
        "group": "resource",
        "lat": 17.811167965463465,
        "lon": -120.18954574863078,
        "alt_km": 857.6805674294792,
        "timestamp": "2025-12-10T09:57:44.361185+00:00",
        "meta_object_name": "SRMSAT",
        "meta_object_id": "2011-058D",
        "meta_epoch": "2025-12-09T18:16:26.313024",
        "meta_mean_motion": 14.11510038,
        "meta_eccentricity": 0.0011712,
        "meta_inclination": 19.9704,
        "meta_ra_of_asc_node": 125.9768,
        "meta_arg_of_pericenter": 280.4028,
        "meta_mean_anomaly": 107.1239,
        "meta_ephemeris_type": 0,
        "meta_classification_type": "U",
        "meta_norad_cat_id": 37841,
        "meta_element_set_no": 999,
        "meta_rev_at_epoch": 73102,
        "meta_bstar": 0.00014938,
        "meta_mean_motion_dot": 5.4e-06,
        "meta_mean_motion_ddot": 0,
        "tle_line1": "1 37841U 11058D   25343.76141566  .00000540  00000+0  14938-3 0  9997",
        "tle_line2": "2 37841  19.9704 125.9768 0011712 280.4028 107.1239 14.11510038731029"
      },
      "geometry": {
        "type": "Point",
        "coordinates": [
          -120.18954574863078,
          17.811167965463465
        ]
      }
    },
    {
      "type": "Feature",
      "properties": {
        "norad_id": 38012,
        "name": "PLEIADES 1A",
        "group": "resource",
        "lat": 53.17011352476884,
        "lon": -111.70412318208072,
        "alt_km": 692.2719770045214,
        "timestamp": "2025-12-10T09:57:44.361195+00:00",
        "meta_object_name": "PLEIADES 1A",
        "meta_object_id": "2011-076F",
        "meta_epoch": "2025-12-10T04:48:09.737280",
        "meta_mean_motion": 14.58557575,
        "meta_eccentricity": 0.0001324,
        "meta_inclination": 98.1823,
        "meta_ra_of_asc_node": 57.0076,
        "meta_arg_of_pericenter": 73.904,
        "meta_mean_anomaly": 3.883,
        "meta_ephemeris_type": 0,
        "meta_classification_type": "U",
        "meta_norad_cat_id": 38012,
        "meta_element_set_no": 999,
        "meta_rev_at_epoch": 74444,
        "meta_bstar": 0.00014017,
        "meta_mean_motion_dot": 6.06e-06,
        "meta_mean_motion_ddot": 0,
        "tle_line1": "1 38012U 11076F   25344.20011270  .00000606  00000+0  14017-3 0  9997",
        "tle_line2": "2 38012  98.1823  57.0076 0001324  73.9040   3.8830 14.58557575744442"
      },
      "geometry": {
        "type": "Point",
        "coordinates": [
          -111.70412318208072,
          53.17011352476884
        ]
      }
    },
    {
      "type": "Feature",
      "properties": {
        "norad_id": 38038,
        "name": "ZIYUAN 1-02C (ZY 1-02C)",
        "group": "resource",
        "lat": -25.324299175929994,
        "lon": -133.55432598827304,
        "alt_km": 768.2332179041141,
        "timestamp": "2025-12-10T09:57:44.361205+00:00",
        "meta_object_name": "ZIYUAN 1-02C (ZY 1-02C)",
        "meta_object_id": "2011-079A",
        "meta_epoch": "2025-12-10T04:21:36.358848",
        "meta_mean_motion": 14.38007286,
        "meta_eccentricity": 0.0007039,
        "meta_inclination": 98.4332,
        "meta_ra_of_asc_node": 50.2423,
        "meta_arg_of_pericenter": 145.2119,
        "meta_mean_anomaly": 292.5194,
        "meta_ephemeris_type": 0,
        "meta_classification_type": "U",
        "meta_norad_cat_id": 38038,
        "meta_element_set_no": 999,
        "meta_rev_at_epoch": 73204,
        "meta_bstar": 0.00022947,
        "meta_mean_motion_dot": 6.51e-06,
        "meta_mean_motion_ddot": 0,
        "tle_line1": "1 38038U 11079A   25344.18167082  .00000651  00000+0  22947-3 0  9999",
        "tle_line2": "2 38038  98.4332  50.2423 0007039 145.2119 292.5194 14.38007286732048"
      },
      "geometry": {
        "type": "Point",
        "coordinates": [
          -133.55432598827304,
          -25.324299175929994
        ]
      }
    },
    {
      "type": "Feature",
      "properties": {
        "norad_id": 38046,
        "name": "ZIYUAN 3-1 (ZY 3-1)",
        "group": "resource",
        "lat": -8.096637156228605,
        "lon": 51.80525150792694,
        "alt_km": 367.28543632153924,
        "timestamp": "2025-12-10T09:57:44.361216+00:00",
        "meta_object_name": "ZIYUAN 3-1 (ZY 3-1)",
        "meta_object_id": "2012-001A",
        "meta_epoch": "2025-12-10T05:24:08.385984",
        "meta_mean_motion": 15.68056131,
        "meta_eccentricity": 0.0001859,
        "meta_inclination": 97.1752,
        "meta_ra_of_asc_node": 50.584,
        "meta_arg_of_pericenter": 5.1466,
        "meta_mean_anomaly": 354.9815,
        "meta_ephemeris_type": 0,
        "meta_classification_type": "U",
        "meta_norad_cat_id": 38046,
        "meta_element_set_no": 999,
        "meta_rev_at_epoch": 77457,
        "meta_bstar": 0.00081001,
        "meta_mean_motion_dot": 0.00090461,
        "meta_mean_motion_ddot": 0,
        "tle_line1": "1 38046U 12001A   25344.22509706  .00090461  00000+0  81001-3 0  9996",
        "tle_line2": "2 38046  97.1752  50.5840 0001859   5.1466 354.9815 15.68056131774572"
      },
      "geometry": {
        "type": "Point",
        "coordinates": [
          51.80525150792694,
          -8.096637156228605
        ]
      }
    },
    {
      "type": "Feature",
      "properties": {
        "norad_id": 38338,
        "name": "ARIRANG-3 (KOMPSAT-3)",
        "group": "resource",
        "lat": -3.0665249200330527,
        "lon": -60.56323083963799,
        "alt_km": 687.1901318262808,
        "timestamp": "2025-12-10T09:57:44.361226+00:00",
        "meta_object_name": "ARIRANG-3 (KOMPSAT-3)",
        "meta_object_id": "2012-025B",
        "meta_epoch": "2025-12-10T03:24:17.640576",
        "meta_mean_motion": 14.61707025,
        "meta_eccentricity": 0.000554,
        "meta_inclination": 98.3318,
        "meta_ra_of_asc_node": 298.7117,
        "meta_arg_of_pericenter": 347.4149,
        "meta_mean_anomaly": 12.6912,
        "meta_ephemeris_type": 0,
        "meta_classification_type": "U",
        "meta_norad_cat_id": 38338,
        "meta_element_set_no": 999,
        "meta_rev_at_epoch": 72372,
        "meta_bstar": 0.00019995,
        "meta_mean_motion_dot": 9.48e-06,
        "meta_mean_motion_ddot": 0,
        "tle_line1": "1 38338U 12025B   25344.14187084  .00000948  00000+0  19995-3 0  9992",
        "tle_line2": "2 38338  98.3318 298.7117 0005540 347.4149  12.6912 14.61707025723725"
      },
      "geometry": {
        "type": "Point",
        "coordinates": [
          -60.56323083963799,
          -3.0665249200330527
        ]
      }
    }
  ]
}